FENGYUN 1C DEB          
1 31917U 99025CLU 17345.93400612  .00000181  00000-0  71722-4 0  9994
2 31917  98.5424  29.3494 0210517 315.6206 169.0011 14.29390739546094
